[{"OBJECT_NAME":"STARLINK-35162","OBJECT_ID":"2025-207X","EPOCH":"2026-03-09T18:12:30.791808","MEAN_MOTION":15.05656295,"ECCENTRICITY":6.095e-5,"INCLINATION":97.6012,"RA_OF_ASC_NODE":138.7609,"ARG_OF_PERICENTER":68.3551,"MEAN_ANOMALY":291.774,"EPHEMERIS_TYPE":0,"CLASSIFICATION_TYPE":"U","NORAD_CAT_ID":65613,"ELEMENT_SET_NO":999,"REV_AT_EPOCH":2827,"BSTAR":1.0832951e-5,"MEAN_MOTION_DOT":9.6e-7,"MEAN_MOTION_DDOT":0},{"OBJECT_NAME":"PEGASUS DEB","OBJECT_ID":"1994-029AEZ","EPOCH":"2026-03-07T11:19:28.799040","MEAN_MOTION":14.72051152,"ECCENTRICITY":0.01604515,"INCLINATION":81.6595,"RA_OF_ASC_NODE":342.3991,"ARG_OF_PERICENTER":98.387,"MEAN_ANOMALY":263.5562,"EPHEMERIS_TYPE":0,"CLASSIFICATION_TYPE":"U","NORAD_CAT_ID":39314,"ELEMENT_SET_NO":999,"REV_AT_EPOCH":64575,"BSTAR":0.00096584038,"MEAN_MOTION_DOT":7.465e-5,"MEAN_MOTION_DDOT":0}]
